{
    "links": {
        "self": "http://www.neowsapp.com/rest/v1/neo/3826676?api_key=iIulBulltgU6a56xZRHN4H3l9WmuAYTsLGpBGhQ2"
    },
    "id": "3826676",
    "neo_reference_id": "3826676",
    "name": "(2018 PR9)",
    "designation": "2018 PR9",
    "nasa_jpl_url": "http://ssd.jpl.nasa.gov/sbdb.cgi?sstr=3826676",
    "absolute_magnitude_h": 24.3,
    "estimated_diameter": {
        "kilometers": {
            "estimated_diameter_min": 0.0366906138,
            "estimated_diameter_max": 0.0820427065
        },
        "meters": {
            "estimated_diameter_min": 36.6906137531,
            "estimated_diameter_max": 82.0427064882
        },
        "miles": {
            "estimated_diameter_min": 0.0227984834,
            "estimated_diameter_max": 0.0509789586
        },
        "feet": {
            "estimated_diameter_min": 120.3760332259,
            "estimated_diameter_max": 269.1689931548
        }
    },
    "is_potentially_hazardous_asteroid": false,
    "close_approach_data": [
        {
            "close_approach_date": "2018-08-24",
            "close_approach_date_full": "2018-Aug-24 12:21",
            "epoch_date_close_approach": 1535113260000,
            "relative_velocity": {
                "kilometers_per_second": "14.0312543467",
                "kilometers_per_hour": "50512.5156482269",
                "miles_per_hour": "31386.5128481997"
            },
            "miss_distance": {
                "astronomical": "0.0462681147",
                "lunar": "17.9982966183",
                "kilometers": "6921611.408035689",
                "miles": "4300889.8940389482"
            },
            "orbiting_body": "Earth"
        }
    ],
    "orbital_data": {
        "orbit_id": "1",
        "orbit_determination_date": "2018-08-10 09:12:07",
        "first_observation_date": "2018-08-08",
        "last_observation_date": "2018-08-09",
        "data_arc_in_days": 1,
        "observations_used": 12,
        "orbit_uncertainty": "9",
        "minimum_orbit_intersection": ".0331572",
        "jupiter_tisserand_invariant": "3.867",
        "epoch_osculation": "2458339.5",
        "eccentricity": ".5443065197999031",
        "semi_major_axis": "1.805339239067979",
        "inclination": "4.499334146829229",
        "ascending_node_longitude": "129.6447895280657",
        "orbital_period": "886.0059926999954",
        "perihelion_distance": ".8226813207926823",
        "perihelion_argument": "266.8873974933148",
        "aphelion_distance": "2.787997157343276",
        "perihelion_time": "2458400.245245910372",
        "mean_anomaly": "335.3181257148239",
        "mean_motion": ".4063177935207231",
        "equinox": "J2000",
        "orbit_class": {
            "orbit_class_type": "APO",
            "orbit_class_description": "Near-Earth asteroid orbits which cross the Earth’s orbit similar to that of 1862 Apollo",
            "orbit_class_range": "a (semi-major axis) > 1.0 AU; q (perihelion) < 1.017 AU"
        }
    },
    "is_sentry_object": false
}